OBJECT_NAME,OBJECT_ID,EPOCH,MEAN_MOTION,ECCENTRICITY,INCLINATION,RA_OF_ASC_NODE,ARG_OF_PERICENTER,MEAN_ANOMALY,EPHEMERIS_TYPE,CLASSIFICATION_TYPE,NORAD_CAT_ID,ELEMENT_SET_NO,REV_AT_EPOCH,BSTAR,MEAN_MOTION_DOT,MEAN_MOTION_DDOT
ONEWEB-0340,2021-083W,2026-06-08T11:36:06.114240,13.18856691,.0002079,87.9166,337.1870,263.9202,96.1694,0,U,49206,999,22882,.55816E-1,.22127E-3,0
ONEWEB-0341,2021-083X,2026-06-08T11:46:06.200256,13.18685806,.0002082,87.9162,337.1895,104.2146,255.9218,0,U,49207,999,22884,.96927E-4,.51E-6,0
ONEWEB-0342,2021-083Y,2026-06-08T18:58:06.453408,13.20770265,.0001878,87.9190,276.1100,103.1128,257.0215,0,U,49208,999,23567,-.90491E-7,.13E-6,0
ONEWEB-0343,2021-083Z,2026-06-08T11:58:15.076704,13.18686472,.0001469,87.9165,337.1862,98.9093,261.2205,0,U,49209,999,22889,.45072E-4,.31E-6,0
ONEWEB-0344,2021-083AA,2026-06-08T17:46:03.325728,13.13472180,.0002011,87.8934,321.9240,104.5231,255.6121,0,U,49210,999,22978,.1028E-2,.388E-5,0
ONEWEB-0345,2021-083AB,2026-06-08T19:23:33.252000,13.13471758,.0001982,87.8954,321.8900,103.6500,256.4850,0,U,49211,999,22980,.61582E-3,.238E-5,0
ONEWEB-0346,2021-083AC,2026-06-08T11:53:23.250336,13.18685689,.0002456,87.9158,337.1877,84.5524,275.5889,0,U,49212,999,22883,.2884E-4,.24E-6,0
ONEWEB-0348,2021-083AD,2026-06-08T18:43:33.415968,13.20770164,.0002481,87.9193,276.1161,101.1948,258.9464,0,U,49213,999,23570,-.20492E-3,-.7E-6,0
ONEWEB-0350,2021-083AE,2026-06-08T17:52:58.310112,13.12943275,.0002007,87.8953,321.9058,100.3455,259.7901,0,U,49214,999,22982,.10966E-2,.41E-5,0
ONEWEB-0351,2021-083AF,2026-06-08T18:33:38.722176,13.20769866,.0001638,87.9194,276.1160,127.2957,232.8326,0,U,49215,999,23566,.1773E-5,.14E-6,0
ONEWEB-0352,2021-083AG,2026-06-08T11:50:09.121632,13.13470491,.0001482,87.8948,321.9645,103.9341,256.1953,0,U,49216,999,22988,-.96724E-4,-.23E-6,0
ONEWEB-0354,2021-083AH,2026-06-08T19:12:39.980736,13.20772085,.0002343,87.9191,276.1099,103.8790,256.2604,0,U,49217,999,23570,.22239E-4,.22E-6,0
ONEWEB-0355,2021-083AJ,2026-06-08T18:00:53.002080,13.13469408,.0001754,87.8944,321.9147,101.9119,258.2207,0,U,49218,999,22979,.90143E-3,.342E-5,0
ONEWEB-0357,2021-083AK,2026-06-08T19:07:48.861120,13.20771912,.0001798,87.9190,276.1047,105.2837,254.8495,0,U,49219,999,23570,.97024E-4,.52E-6,0
ONEWEB-0332,2021-090A,2026-06-08T18:28:08.794272,13.14502597,.0001628,87.8958,291.3868,97.0015,263.1300,0,U,49279,999,22647,-.89731E-3,-.32E-5,0
ONEWEB-0347,2021-090B,2026-06-08T18:53:15.638784,13.20770377,.0001731,87.9191,276.1148,96.6938,263.4392,0,U,49280,999,22993,-.18527E-3,-.62E-6,0
ONEWEB-0349,2021-090C,2026-06-08T17:50:14.591616,13.20772256,.0001963,87.9192,276.1242,101.3991,258.7363,0,U,49281,999,22871,.1841E-3,.88E-6,0
ONEWEB-0353,2021-090D,2026-06-08T09:08:42.391680,13.14502367,.0001666,87.8962,291.4597,95.8510,264.2810,0,U,49282,999,22642,-.19128E-3,-.58E-6,0
ONEWEB-0356,2021-090E,2026-06-08T14:09:38.320704,13.20773443,.0002336,87.9190,276.1480,81.0677,279.0721,0,U,49283,999,22869,.17184E-3,.83E-6,0
ONEWEB-0358,2021-090F,2026-06-08T18:30:28.873728,13.20631656,.0002368,87.9203,276.1154,97.8560,262.2842,0,U,49284,999,22944,-.40191E-1,-.16266E-3,0
ONEWEB-0359,2021-090G,2026-06-08T18:26:36.123360,13.20772654,.0002246,87.9191,276.1122,102.3530,257.7854,0,U,49285,999,22942,-.13296E-3,-.41E-6,0
ONEWEB-0360,2021-090H,2026-06-08T18:12:03.243168,13.20765812,.000205,87.9189,276.1204,104.0614,256.0748,0,U,49286,999,22873,-.9859E-3,-.388E-5,0
ONEWEB-0361,2021-090J,2026-06-08T19:34:27.880608,13.20770419,.0002091,87.9191,276.1076,99.6526,260.4843,0,U,49287,999,22919,.70307E-4,.42E-6,0
ONEWEB-0362,2021-090K,2026-06-08T10:59:55.929408,13.19723839,.0001784,87.9161,306.7177,105.6167,254.5162,0,U,49288,999,22576,.15247E-3,.74E-6,0
ONEWEB-0363,2021-090L,2026-06-08T18:07:11.080704,13.20769872,.0002091,87.9188,276.1198,92.4612,267.6761,0,U,49289,999,22919,-.82021E-4,-.2E-6,0
ONEWEB-0364,2021-090M,2026-06-08T19:02:57.254208,13.20771037,.000196,87.9185,276.1202,101.2358,258.8996,0,U,49290,999,23033,-.12588E-3,-.38E-6,0
ONEWEB-0365,2021-090N,2026-06-08T09:24:24.677856,13.19724345,.0001749,87.9173,306.7188,98.0845,262.0486,0,U,49291,999,22526,.22011E-3,.101E-5,0
ONEWEB-0366,2021-090P,2026-06-08T14:32:57.786432,13.14502244,.0001925,87.8957,291.4171,99.9881,260.1466,0,U,49292,999,22643,.8152E-4,.43E-6,0
ONEWEB-0367,2021-090Q,2026-06-08T18:06:00.061632,13.20739613,.0002036,87.9200,276.1212,105.6985,254.4373,0,U,49293,999,22871,.23469E-1,.9561E-4,0
ONEWEB-0368,2021-090R,2026-06-08T19:17:28.834080,13.20769617,.0001643,87.9179,276.1228,78.7448,281.3870,0,U,49294,999,22987,-.11642E-4,.8E-7,0
