ONEWEB-0340             
1 49206U 21083W   26159.48340410  .00022127  00000+0  55816-1 0  9991
2 49206  87.9166 337.1870 0002079 263.9202  96.1694 13.18856691228826
ONEWEB-0341             
1 49207U 21083X   26159.49034954  .00000051  00000+0  96927-4 0  9999
2 49207  87.9162 337.1895 0002082 104.2146 255.9218 13.18685806228845
ONEWEB-0342             
1 49208U 21083Y   26159.79035247  .00000013  00000+0 -90491-7 0  9991
2 49208  87.9190 276.1100 0001878 103.1128 257.0215 13.20770265235674
ONEWEB-0343             
1 49209U 21083Z   26159.49878562  .00000031  00000+0  45072-4 0  9995
2 49209  87.9165 337.1862 0001469  98.9093 261.2205 13.18686472228893
ONEWEB-0344             
1 49210U 21083AA  26159.74031627  .00000388  00000+0  10280-2 0  9994
2 49210  87.8934 321.9240 0002011 104.5231 255.6121 13.13472180229788
ONEWEB-0345             
1 49211U 21083AB  26159.80802375  .00000238  00000+0  61582-3 0  9994
2 49211  87.8954 321.8900 0001982 103.6500 256.4850 13.13471758229809
ONEWEB-0346             
1 49212U 21083AC  26159.49540799  .00000024  00000+0  28840-4 0  9993
2 49212  87.9158 337.1877 0002456  84.5524 275.5889 13.18685689228831
ONEWEB-0348             
1 49213U 21083AD  26159.78024787 -.00000070  00000+0 -20492-3 0  9997
2 49213  87.9193 276.1161 0002481 101.1948 258.9464 13.20770164235707
ONEWEB-0350             
1 49214U 21083AE  26159.74511933  .00000410  00000+0  10966-2 0  9998
2 49214  87.8953 321.9058 0002007 100.3455 259.7901 13.12943275229820
ONEWEB-0351             
1 49215U 21083AF  26159.77336484  .00000014  00000+0  17730-5 0  9997
2 49215  87.9194 276.1160 0001638 127.2957 232.8326 13.20769866235661
ONEWEB-0352             
1 49216U 21083AG  26159.49316114 -.00000023  00000+0 -96724-4 0  9996
2 49216  87.8948 321.9645 0001482 103.9341 256.1953 13.13470491229887
ONEWEB-0354             
1 49217U 21083AH  26159.80046274  .00000022  00000+0  22239-4 0  9996
2 49217  87.9191 276.1099 0002343 103.8790 256.2604 13.20772085235701
ONEWEB-0355             
1 49218U 21083AJ  26159.75061345  .00000342  00000+0  90143-3 0  9990
2 49218  87.8944 321.9147 0001754 101.9119 258.2207 13.13469408229796
ONEWEB-0357             
1 49219U 21083AK  26159.79709330  .00000052  00000+0  97024-4 0  9992
2 49219  87.9190 276.1047 0001798 105.2837 254.8495 13.20771912235706
ONEWEB-0332             
1 49279U 21090A   26159.76954623 -.00000320  00000+0 -89731-3 0  9995
2 49279  87.8958 291.3868 0001628  97.0015 263.1300 13.14502597226477
ONEWEB-0347             
1 49280U 21090B   26159.78698656 -.00000062  00000+0 -18527-3 0  9998
2 49280  87.9191 276.1148 0001731  96.6938 263.4392 13.20770377229933
ONEWEB-0349             
1 49281U 21090C   26159.74322444  .00000088  00000+0  18410-3 0  9991
2 49281  87.9192 276.1242 0001963 101.3991 258.7363 13.20772256228718
ONEWEB-0353             
1 49282U 21090D   26159.38104621 -.00000058  00000+0 -19128-3 0  9993
2 49282  87.8962 291.4597 0001666  95.8510 264.2810 13.14502367226422
ONEWEB-0356             
1 49283U 21090E   26159.59002687  .00000083  00000+0  17184-3 0  9992
2 49283  87.9190 276.1480 0002336  81.0677 279.0721 13.20773443228692
ONEWEB-0358             
1 49284U 21090F   26159.77116752 -.00016266  00000+0 -40191-1 0  9996
2 49284  87.9203 276.1154 0002368  97.8560 262.2842 13.20631656229448
ONEWEB-0359             
1 49285U 21090G   26159.76847365 -.00000041  00000+0 -13296-3 0  9999
2 49285  87.9191 276.1122 0002246 102.3530 257.7854 13.20772654229428
ONEWEB-0360             
1 49286U 21090H   26159.75837087 -.00000388  00000+0 -98590-3 0  9993
2 49286  87.9189 276.1204 0002050 104.0614 256.0748 13.20765812228737
ONEWEB-0361             
1 49287U 21090J   26159.81560047  .00000042  00000+0  70307-4 0  9992
2 49287  87.9191 276.1076 0002091  99.6526 260.4843 13.20770419229199
ONEWEB-0362             
1 49288U 21090K   26159.45828622  .00000074  00000+0  15247-3 0  9995
2 49288  87.9161 306.7177 0001784 105.6167 254.5162 13.19723839225765
ONEWEB-0363             
1 49289U 21090L   26159.75498936 -.00000020  00000+0 -82021-4 0  9998
2 49289  87.9188 276.1198 0002091  92.4612 267.6761 13.20769872229198
ONEWEB-0364             
1 49290U 21090M   26159.79371822 -.00000038  00000+0 -12588-3 0  9997
2 49290  87.9185 276.1202 0001960 101.2358 258.8996 13.20771037230339
ONEWEB-0365             
1 49291U 21090N   26159.39195230  .00000101  00000+0  22011-3 0  9992
2 49291  87.9173 306.7188 0001748  98.0845 262.0486 13.19724345225263
ONEWEB-0366             
1 49292U 21090P   26159.60622438  .00000043  00000+0  81520-4 0  9998
2 49292  87.8957 291.4171 0001925  99.9881 260.1466 13.14502244226436
ONEWEB-0367             
1 49293U 21090Q   26159.75416738  .00009561  00000+0  23469-1 0  9998
2 49293  87.9200 276.1212 0002036 105.6985 254.4373 13.20739613228714
ONEWEB-0368             
1 49294U 21090R   26159.80380595  .00000008  00000+0 -11642-4 0  9997
2 49294  87.9179 276.1228 0001643  78.7448 281.3870 13.20769617229870
